{
"type": "FeatureCollection",
"name": "buffer-5km",
"crs": { "type": "name", "properties": { "name": "urn:ogc:def:crs:OGC:1.3:CRS84" } },
"features": [
{ "type": "Feature", "properties": { "OBJECTID": 1, "Name": "SMAN 1 JEPARA", "Rombel": 11, "Dayatampung": 396.0, "BUFF_DIST": 5000.0, "ORIG_FID": 1, "Shape_Length": 0.28406139852944945, "Shape_Area": 0.0064203298212382898 }, "geometry": { "type": "MultiPolygon", "coordinates": [ [ [ [ 110.665598357000079, -6.550453865999941 ], [ 110.667395707000082, -6.550489607999964 ], [ 110.669190216000061, -6.550596776999953 ], [ 110.67097904600007, -6.550775203999933 ], [ 110.672759371000041, -6.551024607999977 ], [ 110.674528376000069, -6.551344592999953 ], [ 110.676283265000052, -6.551734652999926 ], [ 110.678021263000062, -6.552194172999975 ], [ 110.679739623000046, -6.552722425999946 ], [ 110.681435628000088, -6.55331857699997 ], [ 110.683106598000052, -6.553981682999961 ], [ 110.684749891000081, -6.554710695999972 ], [ 110.686362908000035, -6.555504463999966 ], [ 110.687943101000087, -6.556361730999981 ], [ 110.689487970000073, -6.557281142999955 ], [ 110.690995073000067, -6.558261246999962 ], [ 110.692462028000079, -6.559300491999977 ], [ 110.693886515000088, -6.560397235999972 ], [ 110.69526628300008, -6.561549745999969 ], [ 110.696599148000075, -6.562756197999931 ], [ 110.697883005000051, -6.56401468599995 ], [ 110.699115823000056, -6.565323220999971 ], [ 110.700295653000069, -6.566679732999944 ], [ 110.701420628000051, -6.568082077999975 ], [ 110.702488971000037, -6.569528038999977 ], [ 110.70349899100006, -6.571015329999966 ], [ 110.704449091000072, -6.572541599999965 ], [ 110.705337768000049, -6.574104434999981 ], [ 110.706163618000062, -6.575701365999976 ], [ 110.706925334000061, -6.577329865999957 ], [ 110.707621710000069, -6.578987361999964 ], [ 110.708251645000075, -6.580671231999929 ], [ 110.708814143000041, -6.58237881499997 ], [ 110.709308313000065, -6.584107410999934 ], [ 110.709733373000063, -6.585854285999972 ], [ 110.710088652000081, -6.58761667899995 ], [ 110.71037358500007, -6.589391801999966 ], [ 110.710587722000071, -6.591176850999943 ], [ 110.710730724000086, -6.592969000999972 ], [ 110.710802363000084, -6.594765418999941 ], [ 110.710802526000066, -6.596563264999929 ], [ 110.710731212000042, -6.598359695999932 ], [ 110.710588532000088, -6.60015187099998 ], [ 110.710374711000043, -6.601936956999964 ], [ 110.710090087000083, -6.603712130999952 ], [ 110.709735110000054, -6.605474584999968 ], [ 110.70931033800008, -6.607221533999962 ], [ 110.708816445000082, -6.608950213999947 ], [ 110.708254209000074, -6.610657891999949 ], [ 110.707624520000081, -6.612341866999941 ], [ 110.70692837200005, -6.613999475999947 ], [ 110.706166865000057, -6.615628098999935 ], [ 110.705341204000035, -6.617225159999975 ], [ 110.704452693000064, -6.618788132999953 ], [ 110.703502737000065, -6.620314545999975 ], [ 110.702492837000079, -6.621801984999934 ], [ 110.701424590000045, -6.623248098999966 ], [ 110.700299685000061, -6.624650599999939 ], [ 110.699119901000074, -6.626007269999945 ], [ 110.697887102000038, -6.627315963999934 ], [ 110.696603239000069, -6.628574611999966 ], [ 110.695270341000082, -6.629781222999952 ], [ 110.693890516000067, -6.630933888999948 ], [ 110.692465945000038, -6.632030787999952 ], [ 110.690998882000088, -6.633070183999962 ], [ 110.689491647000068, -6.63405043299997 ], [ 110.687946622000084, -6.63496998599993 ], [ 110.686366252000084, -6.635827386999949 ], [ 110.684753036000075, -6.636621281999965 ], [ 110.683109525000077, -6.637350412999979 ], [ 110.681438318000062, -6.638013628999943 ], [ 110.679742058000045, -6.638609878999944 ], [ 110.678023429000064, -6.639138221999929 ], [ 110.676285147000044, -6.639597819999949 ], [ 110.674529964000044, -6.639987948999931 ], [ 110.672760653000068, -6.64030798999994 ], [ 110.670980015000055, -6.640557436999927 ], [ 110.669190865000076, -6.640735895999967 ], [ 110.667396032000056, -6.640843083999926 ], [ 110.665598357000079, -6.640878831999942 ], [ 110.663800682000044, -6.640843083999926 ], [ 110.662005849000082, -6.640735895999967 ], [ 110.660216699000046, -6.640557436999927 ], [ 110.658436061000089, -6.64030798999994 ], [ 110.656666750000056, -6.639987948999931 ], [ 110.654911567000056, -6.639597819999949 ], [ 110.653173285000037, -6.639138221999929 ], [ 110.651454656000055, -6.638609878999944 ], [ 110.649758396000038, -6.638013628999943 ], [ 110.64808718900008, -6.637350412999979 ], [ 110.646443678000082, -6.636621281999965 ], [ 110.644830462000073, -6.635827386999949 ], [ 110.643250092000073, -6.63496998599993 ], [ 110.641705067000089, -6.63405043299997 ], [ 110.640197832000069, -6.633070183999962 ], [ 110.638730769000063, -6.632030787999952 ], [ 110.637306198000033, -6.630933888999948 ], [ 110.635926373000075, -6.629781222999952 ], [ 110.634593475000088, -6.628574611999966 ], [ 110.633309612000062, -6.627315963999934 ], [ 110.632076813000083, -6.626007269999945 ], [ 110.630897029000039, -6.624650599999939 ], [ 110.629772124000056, -6.623248098999966 ], [ 110.628703877000078, -6.621801984999934 ], [ 110.627693977000035, -6.620314545999975 ], [ 110.626744021000036, -6.618788132999953 ], [ 110.625855510000065, -6.617225159999975 ], [ 110.625029849000043, -6.615628098999935 ], [ 110.62426834200005, -6.613999475999947 ], [ 110.623572194000076, -6.612341866999941 ], [ 110.622942505000083, -6.610657891999949 ], [ 110.622380269000075, -6.608950213999947 ], [ 110.621886376000077, -6.607221533999962 ], [ 110.621461604000046, -6.605474584999968 ], [ 110.621106627000074, -6.603712130999952 ], [ 110.620822003000058, -6.601936956999964 ], [ 110.620608182000069, -6.60015187099998 ], [ 110.620465502000059, -6.598359695999932 ], [ 110.620394188000034, -6.596563264999929 ], [ 110.620394351000073, -6.594765418999941 ], [ 110.620465990000071, -6.592969000999972 ], [ 110.620608992000086, -6.591176850999943 ], [ 110.620823129000087, -6.589391801999966 ], [ 110.621108062000076, -6.58761667899995 ], [ 110.621463341000037, -6.585854285999972 ], [ 110.621888401000035, -6.584107410999934 ], [ 110.62238257100006, -6.58237881499997 ], [ 110.622945069000082, -6.580671231999929 ], [ 110.623575004000088, -6.578987361999964 ], [ 110.624271380000039, -6.577329865999957 ], [ 110.625033096000038, -6.575701365999976 ], [ 110.625858946000051, -6.574104434999981 ], [ 110.626747623000085, -6.572541599999965 ], [ 110.62769772300004, -6.571015329999966 ], [ 110.628707743000064, -6.569528038999977 ], [ 110.629776086000049, -6.568082077999975 ], [ 110.630901061000088, -6.566679732999944 ], [ 110.632080891000044, -6.565323220999971 ], [ 110.633313709000049, -6.56401468599995 ], [ 110.634597566000082, -6.562756197999931 ], [ 110.635930431000077, -6.561549745999969 ], [ 110.637310199000069, -6.560397235999972 ], [ 110.638734686000078, -6.559300491999977 ], [ 110.640201641000033, -6.558261246999962 ], [ 110.641708744000084, -6.557281142999955 ], [ 110.64325361300007, -6.556361730999981 ], [ 110.644833806000065, -6.555504463999966 ], [ 110.646446823000076, -6.554710695999972 ], [ 110.648090116000049, -6.553981682999961 ], [ 110.649761086000069, -6.55331857699997 ], [ 110.651457091000054, -6.552722425999946 ], [ 110.653175451000038, -6.552194172999975 ], [ 110.654913449000048, -6.551734652999926 ], [ 110.656668338000088, -6.551344592999953 ], [ 110.65843734300006, -6.551024607999977 ], [ 110.660217668000087, -6.550775203999933 ], [ 110.662006498000039, -6.550596776999953 ], [ 110.663801007000075, -6.550489607999964 ], [ 110.665598357000079, -6.550453865999941 ] ] ] ] } },
{ "type": "Feature", "properties": { "OBJECTID": 2, "Name": "SMAN 1 BANGSRI", "Rombel": 10, "Dayatampung": 360.0, "BUFF_DIST": 5000.0, "ORIG_FID": 2, "Shape_Length": 0.28403852810329372, "Shape_Area": 0.0064192959744214777 }, "geometry": { "type": "MultiPolygon", "coordinates": [ [ [ [ 110.757299414000045, -6.467968217999953 ], [ 110.759096471000078, -6.468003959999976 ], [ 110.760890687000085, -6.468111129999954 ], [ 110.762679225000056, -6.468289557999981 ], [ 110.764459260000081, -6.468538961999968 ], [ 110.766227976000039, -6.46885894899998 ], [ 110.767982578000044, -6.469249010999931 ], [ 110.769720293000034, -6.46970853299996 ], [ 110.771438372000034, -6.470236787999966 ], [ 110.77313410000005, -6.470832941999959 ], [ 110.774804797000058, -6.471496049999928 ], [ 110.776447821000033, -6.472225066999954 ], [ 110.77806057500004, -6.473018837999973 ], [ 110.779640509000046, -6.473876108999946 ], [ 110.781185125000036, -6.474795524999934 ], [ 110.782691981000085, -6.475775632999955 ], [ 110.784158696000077, -6.476814881999928 ], [ 110.785582950000048, -6.477911630999927 ], [ 110.786962491000054, -6.479064144999938 ], [ 110.78829513800008, -6.480270601999962 ], [ 110.789578783000081, -6.481529095999974 ], [ 110.790811399000063, -6.482837635999942 ], [ 110.791991034000034, -6.484194152999976 ], [ 110.79311582400004, -6.485596503999943 ], [ 110.794183991000068, -6.487042470999938 ], [ 110.795193844000039, -6.488529767999978 ], [ 110.796143787000062, -6.490056042999981 ], [ 110.797032318000049, -6.49161888499998 ], [ 110.797858031000032, -6.493215820999978 ], [ 110.798619619000078, -6.494844327999942 ], [ 110.799315880000051, -6.496501828999953 ], [ 110.799945710000088, -6.498185705999958 ], [ 110.800508114000081, -6.499893294999936 ], [ 110.801002201000074, -6.50162189699995 ], [ 110.801427190000084, -6.503368777999981 ], [ 110.801782408000065, -6.505131176999953 ], [ 110.802067292000061, -6.506906306999952 ], [ 110.802281392000054, -6.508691360999933 ], [ 110.802424368000061, -6.510483516999955 ], [ 110.802495994000083, -6.512279941999964 ], [ 110.802496155000085, -6.514077793999945 ], [ 110.802424850000079, -6.515874229999952 ], [ 110.802282191000074, -6.517666410999936 ], [ 110.802068404000067, -6.519451502999971 ], [ 110.801783825000086, -6.521226681999963 ], [ 110.801428904000034, -6.522989141999972 ], [ 110.801004200000079, -6.52473609599997 ], [ 110.800510386000042, -6.526464780999959 ], [ 110.799948241000038, -6.528172463999965 ], [ 110.799318654000047, -6.529856443999961 ], [ 110.798622619000071, -6.531514057999971 ], [ 110.797861236000074, -6.533142685999962 ], [ 110.797035709000056, -6.534739750999961 ], [ 110.796147343000086, -6.536302727999953 ], [ 110.795197542000039, -6.537829144999932 ], [ 110.794187807000071, -6.539316587999963 ], [ 110.793119736000051, -6.540762705999953 ], [ 110.791995015000055, -6.542165209999951 ], [ 110.790815424000073, -6.543521883999972 ], [ 110.78958282800005, -6.544830580999928 ], [ 110.788299176000066, -6.546089231999929 ], [ 110.786966497000037, -6.54729584599994 ], [ 110.785586899000066, -6.548448515999951 ], [ 110.784162563000052, -6.549545416999933 ], [ 110.782695742000044, -6.550584814999979 ], [ 110.781188755000073, -6.551565066999956 ], [ 110.779643985000064, -6.552484621999952 ], [ 110.778063876000033, -6.553342024999949 ], [ 110.776450926000052, -6.554135920999954 ], [ 110.774807686000088, -6.554865053999947 ], [ 110.773136755000053, -6.555528270999957 ], [ 110.771440776000077, -6.556124522999937 ], [ 110.769722430000058, -6.556652866999968 ], [ 110.767984437000052, -6.557112465999978 ], [ 110.766229543000065, -6.557502595999949 ], [ 110.764460525000061, -6.557822636999958 ], [ 110.762680182000054, -6.558072084999935 ], [ 110.760891327000081, -6.558250543999975 ], [ 110.759096792000037, -6.55835773299998 ], [ 110.757299414000045, -6.558393480999939 ], [ 110.755502036000053, -6.55835773299998 ], [ 110.753707501000065, -6.558250543999975 ], [ 110.751918646000036, -6.558072084999935 ], [ 110.750138303000085, -6.557822636999958 ], [ 110.748369285000081, -6.557502595999949 ], [ 110.746614391000037, -6.557112465999978 ], [ 110.744876398000088, -6.556652866999968 ], [ 110.743158052000069, -6.556124522999937 ], [ 110.741462073000037, -6.555528270999957 ], [ 110.739791142000058, -6.554865053999947 ], [ 110.738147902000037, -6.554135920999954 ], [ 110.736534952000056, -6.553342024999949 ], [ 110.734954843000082, -6.552484621999952 ], [ 110.733410073000073, -6.551565066999956 ], [ 110.731903086000045, -6.550584814999979 ], [ 110.730436265000037, -6.549545416999933 ], [ 110.72901192900008, -6.548448515999951 ], [ 110.727632331000052, -6.54729584599994 ], [ 110.72629965200008, -6.546089231999929 ], [ 110.725016, -6.544830580999928 ], [ 110.723783404000073, -6.543521883999972 ], [ 110.722603813000035, -6.542165209999951 ], [ 110.721479092000038, -6.540762705999953 ], [ 110.720411021000075, -6.539316587999963 ], [ 110.71940128600005, -6.537829144999932 ], [ 110.71845148500006, -6.536302727999953 ], [ 110.717563119000033, -6.534739750999961 ], [ 110.716737592000072, -6.533142685999962 ], [ 110.715976209000075, -6.531514057999971 ], [ 110.715280174000043, -6.529856443999961 ], [ 110.714650587000051, -6.528172463999965 ], [ 110.714088442000048, -6.526464780999959 ], [ 110.713594628000067, -6.52473609599997 ], [ 110.713169924000056, -6.522989141999972 ], [ 110.71281500300006, -6.521226681999963 ], [ 110.712530424000079, -6.519451502999971 ], [ 110.712316637000072, -6.517666410999936 ], [ 110.712173978000067, -6.515874229999952 ], [ 110.712102673000061, -6.514077793999945 ], [ 110.712102834000063, -6.512279941999964 ], [ 110.712174460000085, -6.510483516999955 ], [ 110.712317436000035, -6.508691360999933 ], [ 110.712531536000085, -6.506906306999952 ], [ 110.712816420000081, -6.505131176999953 ], [ 110.713171638000063, -6.503368777999981 ], [ 110.713596627000072, -6.50162189699995 ], [ 110.714090714000065, -6.499893294999936 ], [ 110.714653118000058, -6.498185705999958 ], [ 110.715282948000038, -6.496501828999953 ], [ 110.715979209000068, -6.494844327999942 ], [ 110.716740797000057, -6.493215820999978 ], [ 110.71756651000004, -6.49161888499998 ], [ 110.718455041000084, -6.490056042999981 ], [ 110.71940498400005, -6.488529767999978 ], [ 110.720414837000078, -6.487042470999938 ], [ 110.721483004000049, -6.485596503999943 ], [ 110.722607794000055, -6.484194152999976 ], [ 110.723787429000083, -6.482837635999942 ], [ 110.725020045000065, -6.481529095999974 ], [ 110.726303690000066, -6.480270601999962 ], [ 110.727636337000035, -6.479064144999938 ], [ 110.729015878000041, -6.477911630999927 ], [ 110.730440132000069, -6.476814881999928 ], [ 110.731906847000062, -6.475775632999955 ], [ 110.733413703000053, -6.474795524999934 ], [ 110.734958319000043, -6.473876108999946 ], [ 110.736538253000049, -6.473018837999973 ], [ 110.738151007000056, -6.472225066999954 ], [ 110.739794031000088, -6.471496049999928 ], [ 110.741464728000039, -6.470832941999959 ], [ 110.743160456000055, -6.470236787999966 ], [ 110.744878535000055, -6.46970853299996 ], [ 110.746616250000045, -6.469249010999931 ], [ 110.74837085200005, -6.46885894899998 ], [ 110.750139568000066, -6.468538961999968 ], [ 110.751919603000033, -6.468289557999981 ], [ 110.753708141000061, -6.468111129999954 ], [ 110.755502357000069, -6.468003959999976 ], [ 110.757299414000045, -6.467968217999953 ] ] ] ] } },
{ "type": "Feature", "properties": { "OBJECTID": 3, "Name": "SMAN 1 PECANGAAN", "Rombel": 11, "Dayatampung": 395.0, "BUFF_DIST": 5000.0, "ORIG_FID": 3, "Shape_Length": 0.28408654323513011, "Shape_Area": 0.0064214664157885067 }, "geometry": { "type": "MultiPolygon", "coordinates": [ [ [ [ 110.707793111000058, -6.639936241999976 ], [ 110.709590783000067, -6.639971983999942 ], [ 110.711385614000051, -6.640079152999931 ], [ 110.713174766000066, -6.640257578999979 ], [ 110.714955410000073, -6.64050698099993 ], [ 110.716724733000035, -6.640826964999974 ], [ 110.718479936000051, -6.641217023999957 ], [ 110.720218246000059, -6.641676540999981 ], [ 110.721936915000072, -6.642204791999973 ], [ 110.723633225000071, -6.642800938999926 ], [ 110.725304495000046, -6.643464041999948 ], [ 110.726948083000082, -6.644193051999935 ], [ 110.728561390000039, -6.644986815999971 ], [ 110.730141867000043, -6.645844079999961 ], [ 110.731687014000045, -6.646763487999976 ], [ 110.733194389000062, -6.647743585999933 ], [ 110.734661608000067, -6.648782826999934 ], [ 110.736086352000086, -6.649879565999981 ], [ 110.737466368000071, -6.651032069999928 ], [ 110.738799474000075, -6.652238516999944 ], [ 110.740083563000042, -6.653497 ], [ 110.741316604000076, -6.65480552799994 ], [ 110.742496646000063, -6.656162033999976 ], [ 110.743621826000037, -6.657564372999957 ], [ 110.744690362000085, -6.659010327999965 ], [ 110.74570056500005, -6.660497612999961 ], [ 110.74665083800005, -6.662023875999978 ], [ 110.747539677000077, -6.663586704999943 ], [ 110.748365677000038, -6.665183628999955 ], [ 110.749127532000045, -6.666812122999943 ], [ 110.749824035000074, -6.668469610999978 ], [ 110.750454086000047, -6.67015347499995 ], [ 110.75101668700006, -6.671861050999951 ], [ 110.751510948000089, -6.673589639999932 ], [ 110.751936088000036, -6.67533650799993 ], [ 110.75229143200005, -6.677098893999926 ], [ 110.752576419000036, -6.678874010999948 ], [ 110.752790597000057, -6.680659052999943 ], [ 110.752933627000061, -6.682451195999931 ], [ 110.753005281000071, -6.684247607999964 ], [ 110.753005447000078, -6.686045446999969 ], [ 110.752934121000067, -6.687841871999979 ], [ 110.752791418000072, -6.689634040999977 ], [ 110.752577561000066, -6.691419120999967 ], [ 110.752292888000056, -6.693194288999962 ], [ 110.751937848000068, -6.694956736999927 ], [ 110.751513002000081, -6.696703679999928 ], [ 110.751019021000047, -6.698432353999976 ], [ 110.750456686000064, -6.700140025999929 ], [ 110.749826884000072, -6.701823995999973 ], [ 110.749130612000044, -6.703481600999964 ], [ 110.748368969000069, -6.705110218999948 ], [ 110.747543160000077, -6.706707273999939 ], [ 110.746654490000083, -6.708270241999969 ], [ 110.745704363000073, -6.709796650999976 ], [ 110.744694282000069, -6.711284085999978 ], [ 110.743625843000075, -6.712730195999939 ], [ 110.742500735000078, -6.714132692999954 ], [ 110.74132073800007, -6.715489358999946 ], [ 110.740087717000051, -6.716798048999976 ], [ 110.738803622000034, -6.718056693999927 ], [ 110.737470483000038, -6.719263301999945 ], [ 110.736090408000052, -6.720415964999972 ], [ 110.73466557900008, -6.721512860999951 ], [ 110.733198251000033, -6.722552253999936 ], [ 110.731690742000069, -6.723532500999966 ], [ 110.730145437000033, -6.724452050999957 ], [ 110.728564781000046, -6.725309449999941 ], [ 110.726951272000065, -6.726103342999977 ], [ 110.725307462000046, -6.726832471999955 ], [ 110.723635951000063, -6.727495685999941 ], [ 110.721939384000052, -6.728091934999952 ], [ 110.720220442000084, -6.728620275999958 ], [ 110.718481845000042, -6.729079873999979 ], [ 110.716726342000072, -6.729470001999971 ], [ 110.714956710000081, -6.729790041999934 ], [ 110.713175748000083, -6.730039487999932 ], [ 110.711386272000084, -6.730217946999971 ], [ 110.709591113000045, -6.73032513499993 ], [ 110.707793111000058, -6.730360882999946 ], [ 110.705995109000071, -6.73032513499993 ], [ 110.704199950000088, -6.730217946999971 ], [ 110.702410474000033, -6.730039487999932 ], [ 110.700629512000035, -6.729790041999934 ], [ 110.698859880000043, -6.729470001999971 ], [ 110.697104377000073, -6.729079873999979 ], [ 110.695365780000088, -6.728620275999958 ], [ 110.693646838000063, -6.728091934999952 ], [ 110.691950271000053, -6.727495685999941 ], [ 110.690278760000069, -6.726832471999955 ], [ 110.688634950000051, -6.726103342999977 ], [ 110.68702144100007, -6.725309449999941 ], [ 110.685440785000083, -6.724452050999957 ], [ 110.683895480000047, -6.723532500999966 ], [ 110.682387971000082, -6.722552253999936 ], [ 110.680920643000036, -6.721512860999951 ], [ 110.679495814000063, -6.720415964999972 ], [ 110.678115739000077, -6.719263301999945 ], [ 110.676782600000081, -6.718056693999927 ], [ 110.675498505000064, -6.716798048999976 ], [ 110.674265484000045, -6.715489358999946 ], [ 110.673085487000037, -6.714132692999954 ], [ 110.671960379000041, -6.712730195999939 ], [ 110.670891940000047, -6.711284085999978 ], [ 110.669881859000043, -6.709796650999976 ], [ 110.668931732000033, -6.708270241999969 ], [ 110.668043062000038, -6.706707273999939 ], [ 110.667217253000047, -6.705110218999948 ], [ 110.666455610000071, -6.703481600999964 ], [ 110.665759338000043, -6.701823995999973 ], [ 110.665129536000052, -6.700140025999929 ], [ 110.664567201000068, -6.698432353999976 ], [ 110.664073220000034, -6.696703679999928 ], [ 110.663648374000047, -6.694956736999927 ], [ 110.663293334000059, -6.693194288999962 ], [ 110.663008661000049, -6.691419120999967 ], [ 110.662794804000043, -6.689634040999977 ], [ 110.662652101000049, -6.687841871999979 ], [ 110.662580775000038, -6.686045446999969 ], [ 110.662580941000044, -6.684247607999964 ], [ 110.662652595000054, -6.682451195999931 ], [ 110.662795625000058, -6.680659052999943 ], [ 110.66300980300008, -6.678874010999948 ], [ 110.663294790000066, -6.677098893999926 ], [ 110.663650134000079, -6.67533650799993 ], [ 110.664075274000083, -6.673589639999932 ], [ 110.664569535000055, -6.671861050999951 ], [ 110.665132136000068, -6.67015347499995 ], [ 110.665762187000041, -6.668469610999978 ], [ 110.66645869000007, -6.666812122999943 ], [ 110.667220545000077, -6.665183628999955 ], [ 110.668046545000038, -6.663586704999943 ], [ 110.668935384000065, -6.662023875999978 ], [ 110.669885657000066, -6.660497612999961 ], [ 110.670895860000087, -6.659010327999965 ], [ 110.671964396000078, -6.657564372999957 ], [ 110.673089576000052, -6.656162033999976 ], [ 110.674269618000039, -6.65480552799994 ], [ 110.675502659000074, -6.653497 ], [ 110.67678674800004, -6.652238516999944 ], [ 110.678119854000045, -6.651032069999928 ], [ 110.679499870000086, -6.649879565999981 ], [ 110.680924614000048, -6.648782826999934 ], [ 110.682391833000054, -6.647743585999933 ], [ 110.683899208000071, -6.646763487999976 ], [ 110.685444355000072, -6.645844079999961 ], [ 110.687024832000077, -6.644986815999971 ], [ 110.688638139000034, -6.644193051999935 ], [ 110.69028172700007, -6.643464041999948 ], [ 110.691952997000044, -6.642800938999926 ], [ 110.693649307000044, -6.642204791999973 ], [ 110.695367976000057, -6.641676540999981 ], [ 110.697106286000064, -6.641217023999957 ], [ 110.69886148900008, -6.640826964999974 ], [ 110.700630812000043, -6.64050698099993 ], [ 110.70241145600005, -6.640257578999979 ], [ 110.704200608000065, -6.640079152999931 ], [ 110.705995439000048, -6.639971983999942 ], [ 110.707793111000058, -6.639936241999976 ] ] ] ] } },
{ "type": "Feature", "properties": { "OBJECTID": 4, "Name": "SMAN 1 TAHUNAN", "Rombel": 11, "Dayatampung": 395.0, "BUFF_DIST": 5000.0, "ORIG_FID": 4, "Shape_Length": 0.2840711407252503, "Shape_Area": 0.006420770196807252 }, "geometry": { "type": "MultiPolygon", "coordinates": [ [ [ [ 110.705766810000057, -6.585270892999972 ], [ 110.707564285000046, -6.585306634999938 ], [ 110.709358918000078, -6.585413803999927 ], [ 110.711147873000073, -6.585592230999964 ], [ 110.712928322000039, -6.585841633999962 ], [ 110.714697450000074, -6.586161617999949 ], [ 110.716452461000074, -6.586551677999978 ], [ 110.718190580000055, -6.587011196999981 ], [ 110.719909059000088, -6.587539448999962 ], [ 110.721605183000065, -6.588135597999951 ], [ 110.723276269000053, -6.588798702999952 ], [ 110.72491967600007, -6.589527714999974 ], [ 110.72653280600008, -6.590321480999933 ], [ 110.728113108000059, -6.591178746999958 ], [ 110.72965808500004, -6.592098157999942 ], [ 110.73116529400005, -6.59307825999997 ], [ 110.732632351000063, -6.59411750299995 ], [ 110.734056937000048, -6.595214244999966 ], [ 110.735436801000048, -6.596366751999938 ], [ 110.736769760000072, -6.597573202999968 ], [ 110.738053707000063, -6.598831688999951 ], [ 110.739286611000068, -6.600140220999947 ], [ 110.740466523000066, -6.601496730999941 ], [ 110.741591578000055, -6.602899072999946 ], [ 110.742659995000054, -6.604345031999969 ], [ 110.743670086000066, -6.60583232099998 ], [ 110.744620253000051, -6.607358587999954 ], [ 110.745508994000033, -6.608921420999934 ], [ 110.746334902000058, -6.61051834899996 ], [ 110.747096671000065, -6.612146845999973 ], [ 110.747793096000066, -6.613804339999945 ], [ 110.748423076000051, -6.615488206999942 ], [ 110.748985614000048, -6.617195787999947 ], [ 110.749479820000033, -6.618924380999943 ], [ 110.749904911000044, -6.620671252999955 ], [ 110.750260215000083, -6.622433642999965 ], [ 110.750545169000077, -6.624208763999945 ], [ 110.750759322000079, -6.625993809999954 ], [ 110.750902334000045, -6.627785956999958 ], [ 110.750973979000037, -6.629582372999948 ], [ 110.750974143000064, -6.631380216999958 ], [ 110.750902825000082, -6.633176644999935 ], [ 110.750760136000054, -6.634968817999948 ], [ 110.750546301000043, -6.636753900999963 ], [ 110.750261658000056, -6.638529072999972 ], [ 110.749906656000064, -6.640291524999952 ], [ 110.749481856000045, -6.642038470999978 ], [ 110.748987929000066, -6.643767148999927 ], [ 110.748425654000073, -6.645474824999951 ], [ 110.74779592200008, -6.647158797999964 ], [ 110.747099725000055, -6.64881640599998 ], [ 110.746338166000044, -6.650445026999932 ], [ 110.745512448000056, -6.652042084999948 ], [ 110.744623875000059, -6.653605055999947 ], [ 110.743673852000086, -6.655131466999933 ], [ 110.742663882000045, -6.656618904999959 ], [ 110.741595561000054, -6.658065016999956 ], [ 110.740470578000043, -6.659467516999939 ], [ 110.739290711000081, -6.660824185999957 ], [ 110.738057826000045, -6.662132877999966 ], [ 110.736773873000061, -6.663391524999952 ], [ 110.735440882000034, -6.664598134999949 ], [ 110.734060960000079, -6.665750799999955 ], [ 110.732636289000084, -6.66684769699998 ], [ 110.731169123000086, -6.667887091999944 ], [ 110.729661782000051, -6.668867340999952 ], [ 110.728116649000071, -6.669786891999934 ], [ 110.726536168000052, -6.670644292999953 ], [ 110.724922838000055, -6.671438185999932 ], [ 110.723279211000033, -6.672167316999946 ], [ 110.721607886000072, -6.672830531999978 ], [ 110.719911507000063, -6.673426781999979 ], [ 110.718192757000054, -6.673955123999974 ], [ 110.716454353000074, -6.674414721999938 ], [ 110.714699046000078, -6.67480484999993 ], [ 110.71292961100005, -6.675124890999939 ], [ 110.711148847000061, -6.675374337999926 ], [ 110.70935957100005, -6.675552796999966 ], [ 110.707564612000056, -6.675659984999925 ], [ 110.705766810000057, -6.675695732999941 ], [ 110.703969008000058, -6.675659984999925 ], [ 110.702174049000064, -6.675552796999966 ], [ 110.700384773000053, -6.675374337999926 ], [ 110.698604009000064, -6.675124890999939 ], [ 110.696834574000036, -6.67480484999993 ], [ 110.69507926700004, -6.674414721999938 ], [ 110.69334086300006, -6.673955123999974 ], [ 110.691622113000051, -6.673426781999979 ], [ 110.689925734000042, -6.672830531999978 ], [ 110.688254409000081, -6.672167316999946 ], [ 110.686610782000059, -6.671438185999932 ], [ 110.684997452000061, -6.670644292999953 ], [ 110.683416971000042, -6.669786891999934 ], [ 110.681871838000063, -6.668867340999952 ], [ 110.680364497000085, -6.667887091999944 ], [ 110.678897331000087, -6.66684769699998 ], [ 110.677472660000035, -6.665750799999955 ], [ 110.676092738000079, -6.664598134999949 ], [ 110.674759747000053, -6.663391524999952 ], [ 110.673475794000069, -6.662132877999966 ], [ 110.672242909000033, -6.660824185999957 ], [ 110.671063042000071, -6.659467516999939 ], [ 110.66993805900006, -6.658065016999956 ], [ 110.668869738000069, -6.656618904999959 ], [ 110.667859768000085, -6.655131466999933 ], [ 110.666909745000055, -6.653605055999947 ], [ 110.666021172000058, -6.652042084999948 ], [ 110.66519545400007, -6.650445026999932 ], [ 110.664433895000059, -6.64881640599998 ], [ 110.663737698000034, -6.647158797999964 ], [ 110.663107966000041, -6.645474824999951 ], [ 110.662545691000048, -6.643767148999927 ], [ 110.662051764000068, -6.642038470999978 ], [ 110.66162696400005, -6.640291524999952 ], [ 110.661271962000058, -6.638529072999972 ], [ 110.660987319000071, -6.636753900999963 ], [ 110.66077348400006, -6.634968817999948 ], [ 110.660630795000088, -6.633176644999935 ], [ 110.660559477000049, -6.631380216999958 ], [ 110.660559641000077, -6.629582372999948 ], [ 110.660631286000068, -6.627785956999958 ], [ 110.660774298000035, -6.625993809999954 ], [ 110.660988451000037, -6.624208763999945 ], [ 110.661273405000088, -6.622433642999965 ], [ 110.66162870900007, -6.620671252999955 ], [ 110.662053800000081, -6.618924380999943 ], [ 110.662548006000065, -6.617195787999947 ], [ 110.663110544000062, -6.615488206999942 ], [ 110.663740524000048, -6.613804339999945 ], [ 110.664436949000049, -6.612146845999973 ], [ 110.665198718000056, -6.61051834899996 ], [ 110.66602462600008, -6.608921420999934 ], [ 110.666913367000063, -6.607358587999954 ], [ 110.667863534000048, -6.60583232099998 ], [ 110.66887362500006, -6.604345031999969 ], [ 110.669942042000059, -6.602899072999946 ], [ 110.671067097000048, -6.601496730999941 ], [ 110.672247009000046, -6.600140220999947 ], [ 110.673479913000051, -6.598831688999951 ], [ 110.674763860000041, -6.597573202999968 ], [ 110.676096819000065, -6.596366751999938 ], [ 110.677476683000066, -6.595214244999966 ], [ 110.67890126900005, -6.59411750299995 ], [ 110.680368326000064, -6.59307825999997 ], [ 110.681875535000074, -6.592098157999942 ], [ 110.683420512000055, -6.591178746999958 ], [ 110.685000814000034, -6.590321480999933 ], [ 110.686613944000044, -6.589527714999974 ], [ 110.688257351000061, -6.588798702999952 ], [ 110.689928437000049, -6.588135597999951 ], [ 110.691624561000083, -6.587539448999962 ], [ 110.693343040000059, -6.587011196999981 ], [ 110.69508115900004, -6.586551677999978 ], [ 110.69683617000004, -6.586161617999949 ], [ 110.698605298000075, -6.585841633999962 ], [ 110.700385747000041, -6.585592230999964 ], [ 110.702174702000036, -6.585413803999927 ], [ 110.703969335000068, -6.585306634999938 ], [ 110.705766810000057, -6.585270892999972 ] ] ] ] } },
{ "type": "Feature", "properties": { "OBJECTID": 5, "Name": "SMAN 1 WELAHAN", "Rombel": 9, "Dayatampung": 324.0, "BUFF_DIST": 5000.0, "ORIG_FID": 5, "Shape_Length": 0.28410694225291822, "Shape_Area": 0.0064223884489182925 }, "geometry": { "type": "MultiPolygon", "coordinates": [ [ [ [ 110.724454561000073, -6.711637795999934 ], [ 110.72625249500004, -6.711673536999967 ], [ 110.728047587000049, -6.711780705999956 ], [ 110.729836999000042, -6.711959131999947 ], [ 110.731617902000039, -6.712208532999966 ], [ 110.733387483000058, -6.712528514999974 ], [ 110.735142942000039, -6.712918571999978 ], [ 110.736881505000042, -6.713378087999956 ], [ 110.738600424000083, -6.713906336999969 ], [ 110.740296981000085, -6.714502481999943 ], [ 110.741968494000048, -6.715165581999941 ], [ 110.743612322000047, -6.715894588999959 ], [ 110.745225865000066, -6.71668834999997 ], [ 110.746806572000082, -6.717545610999935 ], [ 110.748351944000035, -6.718465014999936 ], [ 110.749859539000056, -6.719445109999981 ], [ 110.751326973000062, -6.720484346999967 ], [ 110.752751925000041, -6.721581081999943 ], [ 110.754132143000049, -6.722733581999933 ], [ 110.755465444000038, -6.723940023999944 ], [ 110.756749721000062, -6.725198501999955 ], [ 110.757982943000059, -6.726507025999979 ], [ 110.759163159000082, -6.727863527999943 ], [ 110.760288503000083, -6.729265861999977 ], [ 110.761357196000063, -6.730711811999981 ], [ 110.762367548000043, -6.732199090999927 ], [ 110.763317961000041, -6.73372534899994 ], [ 110.764206932000036, -6.735288172999958 ], [ 110.765033054000071, -6.736885090999976 ], [ 110.765795021000088, -6.738513578999971 ], [ 110.76649162800004, -6.740171062999934 ], [ 110.767121772000053, -6.74185492099997 ], [ 110.767684457000087, -6.743562490999977 ], [ 110.768178793000061, -6.745291074999955 ], [ 110.768603996000081, -6.747037937999949 ], [ 110.768959394000035, -6.748800317999951 ], [ 110.769244424000078, -6.750575429999969 ], [ 110.769458635000035, -6.752360465999971 ], [ 110.76960168800008, -6.754152603999955 ], [ 110.769673355000066, -6.755949009999938 ], [ 110.769673522000062, -6.757746843999939 ], [ 110.769602188000079, -6.759543263999944 ], [ 110.769459465000068, -6.761335427999938 ], [ 110.769245578000039, -6.763120501999936 ], [ 110.768960865000054, -6.764895664999926 ], [ 110.768605775000083, -6.766658108999934 ], [ 110.768180869000048, -6.768405046999931 ], [ 110.767686817000083, -6.770133716999965 ], [ 110.767124401000046, -6.771841384999959 ], [ 110.766494508000051, -6.773525349999943 ], [ 110.765798135000068, -6.77518294999993 ], [ 110.765036382000062, -6.776811563999956 ], [ 110.764210453000089, -6.778408615999979 ], [ 110.763321653000048, -6.779971579999938 ], [ 110.762371388000076, -6.78149798499993 ], [ 110.761361159000046, -6.782985416999963 ], [ 110.760292564000054, -6.784431522999967 ], [ 110.759167292000086, -6.785834016999956 ], [ 110.757987122000088, -6.787190679999981 ], [ 110.75675392100004, -6.788499366999929 ], [ 110.755469638000079, -6.789758008999968 ], [ 110.754136303000053, -6.790964613999961 ], [ 110.752756025000053, -6.792117274999953 ], [ 110.751330988000063, -6.793214167999963 ], [ 110.749863444000084, -6.794253558999969 ], [ 110.74835571300008, -6.795233803999963 ], [ 110.746810181000058, -6.796153351999976 ], [ 110.745229292000033, -6.79701074999997 ], [ 110.743615546000058, -6.797804640999971 ], [ 110.74197149400004, -6.79853376899996 ], [ 110.740299737000043, -6.799196980999966 ], [ 110.738602920000062, -6.799793228999931 ], [ 110.736883724000052, -6.800321568999948 ], [ 110.735144871000045, -6.800781165999979 ], [ 110.733389109000086, -6.801171292999925 ], [ 110.73161921600007, -6.801491331999955 ], [ 110.729837992000057, -6.801740777999953 ], [ 110.728048252000065, -6.801919235999947 ], [ 110.726252829000089, -6.802026423999962 ], [ 110.724454561000073, -6.802062171999978 ], [ 110.722656293000057, -6.802026423999962 ], [ 110.720860870000081, -6.801919235999947 ], [ 110.719071130000088, -6.801740777999953 ], [ 110.717289906000076, -6.801491331999955 ], [ 110.715520013000059, -6.801171292999925 ], [ 110.713764251000043, -6.800781165999979 ], [ 110.712025398000037, -6.800321568999948 ], [ 110.710306202000083, -6.799793228999931 ], [ 110.708609385000045, -6.799196980999966 ], [ 110.706937628000048, -6.79853376899996 ], [ 110.705293576000088, -6.797804640999971 ], [ 110.703679830000056, -6.79701074999997 ], [ 110.702098941000088, -6.796153351999976 ], [ 110.700553409000065, -6.795233803999963 ], [ 110.699045678000061, -6.794253558999969 ], [ 110.697578134000082, -6.793214167999963 ], [ 110.696153097000035, -6.792117274999953 ], [ 110.694772819000036, -6.790964613999961 ], [ 110.693439484000066, -6.789758008999968 ], [ 110.692155201000048, -6.788499366999929 ], [ 110.690922, -6.787190679999981 ], [ 110.68974183000006, -6.785834016999956 ], [ 110.688616558000035, -6.784431522999967 ], [ 110.687547963000043, -6.782985416999963 ], [ 110.686537734000069, -6.78149798499993 ], [ 110.685587469000041, -6.779971579999938 ], [ 110.684698669000056, -6.778408615999979 ], [ 110.683872740000083, -6.776811563999956 ], [ 110.683110987000077, -6.77518294999993 ], [ 110.682414614000038, -6.773525349999943 ], [ 110.681784721000042, -6.771841384999959 ], [ 110.681222305000063, -6.770133716999965 ], [ 110.680728253000041, -6.768405046999931 ], [ 110.680303347000063, -6.766658108999934 ], [ 110.679948257000035, -6.764895664999926 ], [ 110.67966354400005, -6.763120501999936 ], [ 110.679449657000077, -6.761335427999938 ], [ 110.679306934000067, -6.759543263999944 ], [ 110.679235600000084, -6.757746843999939 ], [ 110.67923576700008, -6.755949009999938 ], [ 110.679307434000066, -6.754152603999955 ], [ 110.679450487000054, -6.752360465999971 ], [ 110.679664698000067, -6.750575429999969 ], [ 110.679949728000054, -6.748800317999951 ], [ 110.680305126000064, -6.747037937999949 ], [ 110.680730329000085, -6.745291074999955 ], [ 110.681224665000059, -6.743562490999977 ], [ 110.681787350000036, -6.74185492099997 ], [ 110.682417494000049, -6.740171062999934 ], [ 110.683114101000058, -6.738513578999971 ], [ 110.683876068000075, -6.736885090999976 ], [ 110.684702190000053, -6.735288172999958 ], [ 110.685591161000048, -6.73372534899994 ], [ 110.686541574000046, -6.732199090999927 ], [ 110.687551926000083, -6.730711811999981 ], [ 110.688620619000062, -6.729265861999977 ], [ 110.689745963000064, -6.727863527999943 ], [ 110.690926179000087, -6.726507025999979 ], [ 110.692159401000083, -6.725198501999955 ], [ 110.693443678000051, -6.723940023999944 ], [ 110.694776979000039, -6.722733581999933 ], [ 110.696157197000048, -6.721581081999943 ], [ 110.697582149000084, -6.720484346999967 ], [ 110.699049583000033, -6.719445109999981 ], [ 110.700557178000054, -6.718465014999936 ], [ 110.702102550000063, -6.717545610999935 ], [ 110.70368325700008, -6.71668834999997 ], [ 110.705296800000042, -6.715894588999959 ], [ 110.706940628000041, -6.715165581999941 ], [ 110.70861214100006, -6.714502481999943 ], [ 110.710308698000063, -6.713906336999969 ], [ 110.712027617000047, -6.713378087999956 ], [ 110.71376618000005, -6.712918571999978 ], [ 110.715521639000087, -6.712528514999974 ], [ 110.71729122000005, -6.712208532999966 ], [ 110.719072123000046, -6.711959131999947 ], [ 110.72086153500004, -6.711780705999956 ], [ 110.722656627000049, -6.711673536999967 ], [ 110.724454561000073, -6.711637795999934 ] ] ] ] } },
{ "type": "Feature", "properties": { "OBJECTID": 6, "Name": "SMAN 1 DONOROJO", "Rombel": 10, "Dayatampung": 360.0, "BUFF_DIST": 5000.0, "ORIG_FID": 6, "Shape_Length": 0.28402760226785528, "Shape_Area": 0.0064188020588328244 }, "geometry": { "type": "MultiPolygon", "coordinates": [ [ [ [ 110.887754742000084, -6.428183320999949 ], [ 110.889551659000063, -6.428219063999961 ], [ 110.891345735000073, -6.42832623399994 ], [ 110.893134134000036, -6.428504661999966 ], [ 110.894914030000052, -6.428754066999943 ], [ 110.896682608000049, -6.429074053999955 ], [ 110.898437073000082, -6.429464116999952 ], [ 110.900174652000089, -6.42992363999997 ], [ 110.901892597000085, -6.430451896999955 ], [ 110.903588193000076, -6.431048050999948 ], [ 110.905258760000038, -6.431711160999953 ], [ 110.90690165500007, -6.432440178999968 ], [ 110.908514283000045, -6.433233951999966 ], [ 110.910094093000055, -6.434091224999975 ], [ 110.911638589000063, -6.435010642999941 ], [ 110.913145327000052, -6.435990751999952 ], [ 110.914611927000067, -6.437030003999951 ], [ 110.916036069000086, -6.438126754999928 ], [ 110.91741550200004, -6.439279270999975 ], [ 110.918748045000086, -6.440485730999967 ], [ 110.920031590000065, -6.441744226999958 ], [ 110.921264108000059, -6.443052768999962 ], [ 110.922443651000037, -6.444409288999964 ], [ 110.923568352000075, -6.445811642999956 ], [ 110.924636435000082, -6.44725761199993 ], [ 110.925646208000046, -6.448744911999938 ], [ 110.926596076000067, -6.450271189999967 ], [ 110.927484537000055, -6.451834034999933 ], [ 110.928310184000054, -6.453430973999957 ], [ 110.929071713000042, -6.455059482999957 ], [ 110.929767918000039, -6.456716987999926 ], [ 110.930397698000036, -6.458400867999956 ], [ 110.93096005600006, -6.460108459999958 ], [ 110.931454104000068, -6.461837063999951 ], [ 110.931879059000039, -6.46358394899994 ], [ 110.932234248000043, -6.465346350999937 ], [ 110.932519109000054, -6.467121483999961 ], [ 110.932733191000068, -6.468906540999967 ], [ 110.932876155000088, -6.470698699999957 ], [ 110.93294777400007, -6.472495126999945 ], [ 110.932947934000083, -6.474292980999962 ], [ 110.932876634000081, -6.476089420999926 ], [ 110.932733986000073, -6.477881604999936 ], [ 110.932520214000078, -6.479666698999949 ], [ 110.932235656000046, -6.481441880999967 ], [ 110.931880762000048, -6.483204342999954 ], [ 110.931456091000086, -6.484951299999977 ], [ 110.930962315000045, -6.486679986999945 ], [ 110.930400213000041, -6.488387671999931 ], [ 110.929770675000043, -6.490071654999952 ], [ 110.929074693000075, -6.49172927099994 ], [ 110.928313370000069, -6.493357900999968 ], [ 110.927487907000057, -6.494954967999945 ], [ 110.926599610000039, -6.496517946999973 ], [ 110.925649883000062, -6.498044365999931 ], [ 110.924640228000044, -6.49953181199993 ], [ 110.923572239000066, -6.500977930999966 ], [ 110.922447607000038, -6.502380436999943 ], [ 110.921268109000039, -6.503737112999943 ], [ 110.92003561000007, -6.505045810999945 ], [ 110.918752058000052, -6.506304463999925 ], [ 110.91741948400005, -6.507511078999926 ], [ 110.916039994000073, -6.508663749999926 ], [ 110.914615770000069, -6.509760651999954 ], [ 110.913149064000038, -6.510800051999979 ], [ 110.911642196000059, -6.511780304999945 ], [ 110.910097548000067, -6.512699859999941 ], [ 110.908517564000078, -6.513557264999974 ], [ 110.906904741000062, -6.514351161999969 ], [ 110.905261631000087, -6.515080294999962 ], [ 110.903590832000077, -6.515743512999961 ], [ 110.901894986000059, -6.51633976599993 ], [ 110.90017677700007, -6.516868109999962 ], [ 110.898438920000046, -6.517327709999961 ], [ 110.896684165000067, -6.517717839999932 ], [ 110.89491528700006, -6.518037881999931 ], [ 110.89313508400005, -6.518287329999964 ], [ 110.891346371000054, -6.518465788999947 ], [ 110.889551978000043, -6.518572977999952 ], [ 110.887754742000084, -6.518608725999968 ], [ 110.885957506000068, -6.518572977999952 ], [ 110.884163113000056, -6.518465788999947 ], [ 110.88237440000006, -6.518287329999964 ], [ 110.88059419700005, -6.518037881999931 ], [ 110.878825319000043, -6.517717839999932 ], [ 110.877070564000064, -6.517327709999961 ], [ 110.875332707000041, -6.516868109999962 ], [ 110.873614498000052, -6.51633976599993 ], [ 110.871918652000033, -6.515743512999961 ], [ 110.87024785300008, -6.515080294999962 ], [ 110.868604743000049, -6.514351161999969 ], [ 110.866991920000089, -6.513557264999974 ], [ 110.865411936000044, -6.512699859999941 ], [ 110.863867288000051, -6.511780304999945 ], [ 110.862360420000073, -6.510800051999979 ], [ 110.860893714000042, -6.509760651999954 ], [ 110.859469490000038, -6.508663749999926 ], [ 110.85809, -6.507511078999926 ], [ 110.856757426000058, -6.506304463999925 ], [ 110.85547387400004, -6.505045810999945 ], [ 110.854241375000072, -6.503737112999943 ], [ 110.853061877000073, -6.502380436999943 ], [ 110.851937245000045, -6.500977930999966 ], [ 110.850869256000067, -6.49953181199993 ], [ 110.849859601000048, -6.498044365999931 ], [ 110.848909874000071, -6.496517946999973 ], [ 110.848021577000054, -6.494954967999945 ], [ 110.847196114000042, -6.493357900999968 ], [ 110.846434791000036, -6.49172927099994 ], [ 110.845738809000068, -6.490071654999952 ], [ 110.845109271000069, -6.488387671999931 ], [ 110.844547169000066, -6.486679986999945 ], [ 110.844053393000081, -6.484951299999977 ], [ 110.843628722000062, -6.483204342999954 ], [ 110.843273828000065, -6.481441880999967 ], [ 110.842989270000089, -6.479666698999949 ], [ 110.842775498000037, -6.477881604999936 ], [ 110.842632850000086, -6.476089420999926 ], [ 110.842561550000084, -6.474292980999962 ], [ 110.842561710000041, -6.472495126999945 ], [ 110.84263332900008, -6.470698699999957 ], [ 110.842776293000043, -6.468906540999967 ], [ 110.842990375000056, -6.467121483999961 ], [ 110.843275236000068, -6.465346350999937 ], [ 110.843630425000072, -6.46358394899994 ], [ 110.844055380000043, -6.461837063999951 ], [ 110.84454942800005, -6.460108459999958 ], [ 110.845111786000075, -6.458400867999956 ], [ 110.845741566000072, -6.456716987999926 ], [ 110.846437771000069, -6.455059482999957 ], [ 110.847199300000057, -6.453430973999957 ], [ 110.848024947000056, -6.451834034999933 ], [ 110.848913408000044, -6.450271189999967 ], [ 110.849863276000065, -6.448744911999938 ], [ 110.850873049000086, -6.44725761199993 ], [ 110.851941132000036, -6.445811642999956 ], [ 110.853065833000073, -6.444409288999964 ], [ 110.854245376000051, -6.443052768999962 ], [ 110.855477894000046, -6.441744226999958 ], [ 110.856761439000081, -6.440485730999967 ], [ 110.858093982000071, -6.439279270999975 ], [ 110.859473415000082, -6.438126754999928 ], [ 110.860897557000044, -6.437030003999951 ], [ 110.862364157000059, -6.435990751999952 ], [ 110.863870895000048, -6.435010642999941 ], [ 110.865415391000056, -6.434091224999975 ], [ 110.866995201000066, -6.433233951999966 ], [ 110.868607829000041, -6.432440178999968 ], [ 110.870250724000073, -6.431711160999953 ], [ 110.871921291000035, -6.431048050999948 ], [ 110.873616887000082, -6.430451896999955 ], [ 110.875334832000078, -6.42992363999997 ], [ 110.877072411000086, -6.429464116999952 ], [ 110.878826876000062, -6.429074053999955 ], [ 110.880595454000058, -6.428754066999943 ], [ 110.882375350000075, -6.428504661999966 ], [ 110.884163749000038, -6.42832623399994 ], [ 110.885957825000048, -6.428219063999961 ], [ 110.887754742000084, -6.428183320999949 ] ] ] ] } },
{ "type": "Feature", "properties": { "OBJECTID": 7, "Name": "SMAN 1 MAYONG", "Rombel": 10, "Dayatampung": 360.0, "BUFF_DIST": 5000.0, "ORIG_FID": 7, "Shape_Length": 0.28410069238074842, "Shape_Area": 0.0064221059598483727 }, "geometry": { "type": "MultiPolygon", "coordinates": [ [ [ [ 110.734276701000056, -6.689752729999952 ], [ 110.736074555000073, -6.689788470999929 ], [ 110.737869567000075, -6.689895639999975 ], [ 110.739658899000062, -6.690074065999966 ], [ 110.741439723000042, -6.690323466999928 ], [ 110.743209224000054, -6.690643449999925 ], [ 110.744964605000064, -6.691033506999929 ], [ 110.746703091000086, -6.691493023999953 ], [ 110.748421933000088, -6.692021272999966 ], [ 110.750118414000042, -6.69261741899993 ], [ 110.751789853000048, -6.693280519999973 ], [ 110.753433607000034, -6.694009527999981 ], [ 110.755047078000075, -6.694803289999925 ], [ 110.756627715000036, -6.695660550999946 ], [ 110.758173018000036, -6.696579956999926 ], [ 110.759680545000037, -6.697560052999961 ], [ 110.761147913000059, -6.698599290999937 ], [ 110.762572802000079, -6.699696026999959 ], [ 110.763952958000061, -6.700848527999938 ], [ 110.765286199000059, -6.702054971999928 ], [ 110.766570419000061, -6.703313451999975 ], [ 110.767803585000081, -6.704621976999931 ], [ 110.768983748000039, -6.705978479999942 ], [ 110.770109042000058, -6.707380814999965 ], [ 110.771177687000034, -6.708826766999948 ], [ 110.772187993000045, -6.71031404799993 ], [ 110.773138363000044, -6.711840307999978 ], [ 110.774027293000074, -6.713403132999929 ], [ 110.774853378000046, -6.715000052999926 ], [ 110.775615311000081, -6.716628542999956 ], [ 110.776311886000087, -6.718286027999966 ], [ 110.776942002000055, -6.71996988799998 ], [ 110.77750466100008, -6.721677459999967 ], [ 110.777998973000081, -6.723406044999933 ], [ 110.778424157000075, -6.725152908999974 ], [ 110.778779539000084, -6.726915291999944 ], [ 110.779064556000037, -6.728690404999952 ], [ 110.779278757000043, -6.730475442999932 ], [ 110.779421802000059, -6.732267581999963 ], [ 110.779493465000087, -6.734063989999981 ], [ 110.779493632000083, -6.735861825999962 ], [ 110.779422301000068, -6.737658246999956 ], [ 110.779279584000051, -6.739450412999929 ], [ 110.77906570600004, -6.741235488999962 ], [ 110.778781005000042, -6.743010652999942 ], [ 110.778425931000072, -6.744773097999939 ], [ 110.778001043000074, -6.746520037999971 ], [ 110.777507013000047, -6.748248708999938 ], [ 110.776944621000041, -6.749956377999979 ], [ 110.77631475700008, -6.751640344999942 ], [ 110.775618414000064, -6.753297946999965 ], [ 110.77485669500004, -6.75492656199998 ], [ 110.774030803000073, -6.756523614999935 ], [ 110.773142043000064, -6.75808657999994 ], [ 110.772191820000046, -6.759612985999979 ], [ 110.771181636000051, -6.761100418999945 ], [ 110.770113089000063, -6.762546525999937 ], [ 110.768987867000078, -6.763949020999974 ], [ 110.767807751000078, -6.76530568499993 ], [ 110.766574604000084, -6.766614372999925 ], [ 110.765290379000078, -6.767873015999953 ], [ 110.763957104000042, -6.769079621999936 ], [ 110.762576889000059, -6.770232282999928 ], [ 110.761151915000085, -6.771329176999927 ], [ 110.759684437000033, -6.77236856899998 ], [ 110.758176774000049, -6.773348813999974 ], [ 110.756631312000081, -6.774268362999976 ], [ 110.755050494000045, -6.77512576099997 ], [ 110.753436820000047, -6.77591965299996 ], [ 110.751792843000089, -6.776648780999949 ], [ 110.750121162000084, -6.777311993999945 ], [ 110.748424420000049, -6.777908241999967 ], [ 110.746705303000056, -6.778436582999973 ], [ 110.744966528000077, -6.778896179999947 ], [ 110.743210846000068, -6.77928630699995 ], [ 110.741441033000058, -6.779606346999969 ], [ 110.739659888000062, -6.779855792999967 ], [ 110.737870230000055, -6.780034250999961 ], [ 110.736074887000086, -6.780141438999976 ], [ 110.734276701000056, -6.780177186999936 ], [ 110.732478515000082, -6.780141438999976 ], [ 110.730683172000056, -6.780034250999961 ], [ 110.728893514000049, -6.779855792999967 ], [ 110.727112369000054, -6.779606346999969 ], [ 110.725342556000044, -6.77928630699995 ], [ 110.723586874000034, -6.778896179999947 ], [ 110.721848099000056, -6.778436582999973 ], [ 110.720128982000062, -6.777908241999967 ], [ 110.718432240000084, -6.777311993999945 ], [ 110.716760559000079, -6.776648780999949 ], [ 110.715116582000064, -6.77591965299996 ], [ 110.713502908000066, -6.77512576099997 ], [ 110.711922090000087, -6.774268362999976 ], [ 110.710376628000063, -6.773348813999974 ], [ 110.708868965000079, -6.77236856899998 ], [ 110.707401487000084, -6.771329176999927 ], [ 110.705976513000053, -6.770232282999928 ], [ 110.70459629800007, -6.769079621999936 ], [ 110.703263023000034, -6.767873015999953 ], [ 110.701978798000084, -6.766614372999925 ], [ 110.700745651000034, -6.76530568499993 ], [ 110.699565535000033, -6.763949020999974 ], [ 110.698440313000049, -6.762546525999937 ], [ 110.69737176600006, -6.761100418999945 ], [ 110.696361582000065, -6.759612985999979 ], [ 110.695411359000047, -6.75808657999994 ], [ 110.694522599000038, -6.756523614999935 ], [ 110.693696707000072, -6.75492656199998 ], [ 110.692934988000047, -6.753297946999965 ], [ 110.692238645000089, -6.751640344999942 ], [ 110.69160878100007, -6.749956377999979 ], [ 110.691046389000064, -6.748248708999938 ], [ 110.690552359000037, -6.746520037999971 ], [ 110.690127471000039, -6.744773097999939 ], [ 110.68977239700007, -6.743010652999942 ], [ 110.689487696000072, -6.741235488999962 ], [ 110.689273818000061, -6.739450412999929 ], [ 110.689131101000044, -6.737658246999956 ], [ 110.689059770000085, -6.735861825999962 ], [ 110.689059937000081, -6.734063989999981 ], [ 110.689131600000053, -6.732267581999963 ], [ 110.689274645000069, -6.730475442999932 ], [ 110.689488846000074, -6.728690404999952 ], [ 110.689773863000084, -6.726915291999944 ], [ 110.690129245000037, -6.725152908999974 ], [ 110.690554429000088, -6.723406044999933 ], [ 110.691048741000088, -6.721677459999967 ], [ 110.691611400000056, -6.71996988799998 ], [ 110.692241516000081, -6.718286027999966 ], [ 110.692938091000087, -6.716628542999956 ], [ 110.693700024000066, -6.715000052999926 ], [ 110.694526109000037, -6.713403132999929 ], [ 110.695415039000068, -6.711840307999978 ], [ 110.696365409000066, -6.71031404799993 ], [ 110.697375715000078, -6.708826766999948 ], [ 110.698444360000053, -6.707380814999965 ], [ 110.699569654000072, -6.705978479999942 ], [ 110.700749817000087, -6.704621976999931 ], [ 110.70198298300005, -6.703313451999975 ], [ 110.703267203000053, -6.702054971999928 ], [ 110.70460044400005, -6.700848527999938 ], [ 110.705980600000089, -6.699696026999959 ], [ 110.707405489000053, -6.698599290999937 ], [ 110.708872857000074, -6.697560052999961 ], [ 110.710380384000075, -6.696579956999926 ], [ 110.711925687000075, -6.695660550999946 ], [ 110.713506324000036, -6.694803289999925 ], [ 110.715119795000078, -6.694009527999981 ], [ 110.716763549000063, -6.693280519999973 ], [ 110.71843498800007, -6.69261741899993 ], [ 110.72013146900008, -6.692021272999966 ], [ 110.721850311000082, -6.691493023999953 ], [ 110.723588797000048, -6.691033506999929 ], [ 110.725344178000057, -6.690643449999925 ], [ 110.72711367900007, -6.690323466999928 ], [ 110.728894503000049, -6.690074065999966 ], [ 110.730683835000036, -6.689895639999975 ], [ 110.732478847000039, -6.689788470999929 ], [ 110.734276701000056, -6.689752729999952 ] ] ] ] } },
{ "type": "Feature", "properties": { "OBJECTID": 8, "Name": "SMAN 1 KEMBANG", "Rombel": 10, "Dayatampung": 360.0, "BUFF_DIST": 5000.0, "ORIG_FID": 8, "Shape_Length": 0.28403642954933012, "Shape_Area": 0.0064192011076742578 }, "geometry": { "type": "MultiPolygon", "coordinates": [ [ [ [ 110.800381177000077, -6.460345641999936 ], [ 110.802178207000054, -6.460381383999959 ], [ 110.803972396000063, -6.460488552999948 ], [ 110.805760908000082, -6.460666981999964 ], [ 110.80754091600005, -6.460916385999951 ], [ 110.809309606000056, -6.461236372999963 ], [ 110.811064181000063, -6.461626434999971 ], [ 110.812801870000044, -6.462085956999942 ], [ 110.814519923000034, -6.462614212999938 ], [ 110.816215626000087, -6.463210365999942 ], [ 110.817886298000076, -6.463873474999957 ], [ 110.819529297000088, -6.464602491999926 ], [ 110.821142027000064, -6.465396262999946 ], [ 110.82272193700004, -6.466253534999964 ], [ 110.824266530000045, -6.467172950999952 ], [ 110.825773364000042, -6.468153058999974 ], [ 110.827240056000051, -6.469192308999936 ], [ 110.828664288000084, -6.470289057999935 ], [ 110.830043809000074, -6.471441572999936 ], [ 110.831376436000085, -6.472648030999949 ], [ 110.832660062000059, -6.473906524999961 ], [ 110.833892659000071, -6.475215064999929 ], [ 110.835072276000062, -6.476571582999952 ], [ 110.836197049000077, -6.477973933999976 ], [ 110.837265200000047, -6.479419900999972 ], [ 110.838275038000063, -6.480907198999944 ], [ 110.839224966000074, -6.482433474999937 ], [ 110.840113484000085, -6.483996316999935 ], [ 110.840939184000035, -6.48559325399998 ], [ 110.841700761000084, -6.487221760999944 ], [ 110.84239701100006, -6.488879262999944 ], [ 110.843026831000088, -6.490563140999939 ], [ 110.843589226000063, -6.492270729999973 ], [ 110.844083306000073, -6.493999332999977 ], [ 110.844508288000043, -6.49574621499994 ], [ 110.844863501000077, -6.497508613999969 ], [ 110.845148381000058, -6.499283744999957 ], [ 110.845362477000037, -6.501068798999938 ], [ 110.845505451000065, -6.50286095599995 ], [ 110.845577076000041, -6.504657380999959 ], [ 110.845577236000054, -6.50645523299994 ], [ 110.845505932000037, -6.508251669999936 ], [ 110.845363276000057, -6.510043851999967 ], [ 110.845149491000086, -6.511828943999944 ], [ 110.844864916000063, -6.513604123999926 ], [ 110.84451, -6.515366583999935 ], [ 110.844085303000043, -6.517113538999979 ], [ 110.843591496000045, -6.518842223999968 ], [ 110.84302936000006, -6.520549906999975 ], [ 110.842399782000086, -6.52223388799996 ], [ 110.841703757000062, -6.523891502999959 ], [ 110.840942386000052, -6.525520130999951 ], [ 110.840116871000077, -6.527117195999949 ], [ 110.839228518000084, -6.528680172999941 ], [ 110.838278731000059, -6.530206590999967 ], [ 110.837269012000036, -6.53169403499993 ], [ 110.836200956000084, -6.533140152999977 ], [ 110.835076253000068, -6.534542657999964 ], [ 110.833896680000066, -6.535899331999929 ], [ 110.832664102000081, -6.537208028999942 ], [ 110.831380469000067, -6.538466679999942 ], [ 110.830047810000053, -6.539673294999943 ], [ 110.828668233000087, -6.540825963999964 ], [ 110.827243919000068, -6.541922865999936 ], [ 110.825777120000055, -6.542962263999925 ], [ 110.824270155000079, -6.543942515999959 ], [ 110.822725409000043, -6.544862070999955 ], [ 110.821145324000042, -6.545719474999942 ], [ 110.819532398000035, -6.546513370999946 ], [ 110.817889183000034, -6.547242503999939 ], [ 110.816218278000065, -6.54790572099995 ], [ 110.814522324000052, -6.548501972999929 ], [ 110.812804005000089, -6.549030316999961 ], [ 110.811066037000046, -6.54948991699996 ], [ 110.809311170000058, -6.549880045999942 ], [ 110.807542180000041, -6.55020008799994 ], [ 110.805761863000043, -6.550449535999974 ], [ 110.803973036000059, -6.550627994999957 ], [ 110.80217852800007, -6.550735182999972 ], [ 110.800381177000077, -6.550770931999978 ], [ 110.798583826000083, -6.550735182999972 ], [ 110.796789318000037, -6.550627994999957 ], [ 110.795000491000053, -6.550449535999974 ], [ 110.793220174000055, -6.55020008799994 ], [ 110.791451184000039, -6.549880045999942 ], [ 110.78969631700005, -6.54948991699996 ], [ 110.787958349000064, -6.549030316999961 ], [ 110.786240030000044, -6.548501972999929 ], [ 110.784544076000088, -6.54790572099995 ], [ 110.782873171000062, -6.547242503999939 ], [ 110.781229956000061, -6.546513370999946 ], [ 110.779617030000054, -6.545719474999942 ], [ 110.778036945000053, -6.544862070999955 ], [ 110.776492199000074, -6.543942515999959 ], [ 110.774985234000042, -6.542962263999925 ], [ 110.773518435000085, -6.541922865999936 ], [ 110.772094121000066, -6.540825963999964 ], [ 110.770714544000043, -6.539673294999943 ], [ 110.769381885000087, -6.538466679999942 ], [ 110.768098252000073, -6.537208028999942 ], [ 110.766865674000087, -6.535899331999929 ], [ 110.765686101000085, -6.534542657999964 ], [ 110.764561398000069, -6.533140152999977 ], [ 110.763493342000061, -6.53169403499993 ], [ 110.762483623000037, -6.530206590999967 ], [ 110.761533836000069, -6.528680172999941 ], [ 110.760645483000076, -6.527117195999949 ], [ 110.759819968000045, -6.525520130999951 ], [ 110.759058597000035, -6.523891502999959 ], [ 110.758362572000067, -6.52223388799996 ], [ 110.757732994000037, -6.520549906999975 ], [ 110.757170858000052, -6.518842223999968 ], [ 110.756677051000054, -6.517113538999979 ], [ 110.756252354000083, -6.515366583999935 ], [ 110.755897438000034, -6.513604123999926 ], [ 110.755612863000067, -6.511828943999944 ], [ 110.755399078000039, -6.510043851999967 ], [ 110.755256422000059, -6.508251669999936 ], [ 110.755185118000043, -6.50645523299994 ], [ 110.755185278000056, -6.504657380999959 ], [ 110.755256903000088, -6.50286095599995 ], [ 110.755399877000059, -6.501068798999938 ], [ 110.755613973000038, -6.499283744999957 ], [ 110.755898853000076, -6.497508613999969 ], [ 110.756254066000054, -6.49574621499994 ], [ 110.75667904800008, -6.493999332999977 ], [ 110.757173128000034, -6.492270729999973 ], [ 110.757735523000065, -6.490563140999939 ], [ 110.758365343000037, -6.488879262999944 ], [ 110.759061593000069, -6.487221760999944 ], [ 110.759823170000061, -6.48559325399998 ], [ 110.760648870000068, -6.483996316999935 ], [ 110.761537388000079, -6.482433474999937 ], [ 110.762487316000033, -6.480907198999944 ], [ 110.763497154000049, -6.479419900999972 ], [ 110.764565305000076, -6.477973933999976 ], [ 110.765690078000034, -6.476571582999952 ], [ 110.766869695000082, -6.475215064999929 ], [ 110.768102292000037, -6.473906524999961 ], [ 110.769385918000069, -6.472648030999949 ], [ 110.770718545000079, -6.471441572999936 ], [ 110.772098066000069, -6.470289057999935 ], [ 110.773522298000046, -6.469192308999936 ], [ 110.774988990000054, -6.468153058999974 ], [ 110.776495824000051, -6.467172950999952 ], [ 110.778040417000057, -6.466253534999964 ], [ 110.779620327000089, -6.465396262999946 ], [ 110.781233057000065, -6.464602491999926 ], [ 110.782876056000077, -6.463873474999957 ], [ 110.784546728000066, -6.463210365999942 ], [ 110.786242431000062, -6.462614212999938 ], [ 110.787960484000052, -6.462085956999942 ], [ 110.789698173000033, -6.461626434999971 ], [ 110.79145274800004, -6.461236372999963 ], [ 110.793221438000046, -6.460916385999951 ], [ 110.795001446000072, -6.460666981999964 ], [ 110.796789958000033, -6.460488552999948 ], [ 110.798584147000042, -6.460381383999959 ], [ 110.800381177000077, -6.460345641999936 ] ] ] ] } },
{ "type": "Feature", "properties": { "OBJECTID": 9, "Name": "SMAN 1 MLONGGO", "Rombel": 8, "Dayatampung": 288.0, "BUFF_DIST": 5000.0, "ORIG_FID": 9, "Shape_Length": 0.28404724318937652, "Shape_Area": 0.0064196899419077013 }, "geometry": { "type": "MultiPolygon", "coordinates": [ [ [ [ 110.694506786000034, -6.499527712999964 ], [ 110.696303954000086, -6.499563454999929 ], [ 110.698098282000046, -6.499670624999965 ], [ 110.699886932000084, -6.499849052999934 ], [ 110.701667077000081, -6.500098456999979 ], [ 110.70343590400006, -6.500418442999944 ], [ 110.705190615000049, -6.500808503999963 ], [ 110.706928437000045, -6.501268025999934 ], [ 110.70864662300005, -6.501796279999951 ], [ 110.710342457000081, -6.502392431999965 ], [ 110.71201325800007, -6.503055539999934 ], [ 110.713656385000036, -6.503784554999925 ], [ 110.715269239000065, -6.504578324999954 ], [ 110.716849271000058, -6.505435594999938 ], [ 110.718393984000045, -6.506355008999947 ], [ 110.719900934000066, -6.507335114999933 ], [ 110.721367741000051, -6.508374362999973 ], [ 110.722792083000058, -6.509471109999936 ], [ 110.724171710000064, -6.510623621999969 ], [ 110.725504441000055, -6.511830077999946 ], [ 110.726788167000052, -6.513088568999933 ], [ 110.728020860000072, -6.514397106999979 ], [ 110.729200569000056, -6.515753621999977 ], [ 110.73032543000005, -6.517155970999966 ], [ 110.731393663000063, -6.518601935999925 ], [ 110.732403580000039, -6.52008922999994 ], [ 110.733353583000053, -6.521615503999953 ], [ 110.734242170000073, -6.523178342999927 ], [ 110.735067935000075, -6.524775276999947 ], [ 110.735829572000057, -6.526403780999942 ], [ 110.736525876000087, -6.528061280999964 ], [ 110.737155746000042, -6.529745154999944 ], [ 110.737718186000052, -6.531452741999942 ], [ 110.738212305000047, -6.533181340999931 ], [ 110.738637321000056, -6.534928219999927 ], [ 110.738992562000078, -6.536690616999977 ], [ 110.739277465000043, -6.53846574399995 ], [ 110.73949157900006, -6.540250795999953 ], [ 110.739634565000074, -6.542042949999939 ], [ 110.739706196000043, -6.543839371999979 ], [ 110.739706358000035, -6.545637221999925 ], [ 110.739635049000071, -6.547433655999953 ], [ 110.739492382000037, -6.549225834999959 ], [ 110.739278582000054, -6.551010923999968 ], [ 110.738993986000082, -6.552786100999981 ], [ 110.738639043000035, -6.554548558999954 ], [ 110.738214314000061, -6.556295510999973 ], [ 110.737720470000056, -6.558024193999927 ], [ 110.737158290000082, -6.559731874999954 ], [ 110.736528664000048, -6.561415852999971 ], [ 110.735832586000072, -6.563073465999935 ], [ 110.73507115600006, -6.564702091999948 ], [ 110.734245578000071, -6.566299154999967 ], [ 110.733357157000057, -6.56786212999998 ], [ 110.732407296000076, -6.569388545999971 ], [ 110.731397499000082, -6.570875987999955 ], [ 110.730329360000042, -6.572322103999966 ], [ 110.729204570000036, -6.573724606999974 ], [ 110.728024905000041, -6.575081279999949 ], [ 110.726792232000037, -6.576389975999973 ], [ 110.725508499000057, -6.577648624999938 ], [ 110.724175737000053, -6.57885523799996 ], [ 110.722796052000035, -6.580007905999935 ], [ 110.721371627000053, -6.581104806999974 ], [ 110.719904713000062, -6.582144203999974 ], [ 110.718397632000062, -6.583124454999961 ], [ 110.716852765000056, -6.584044008999967 ], [ 110.715272556000059, -6.584901410999976 ], [ 110.713659505000066, -6.58569530699998 ], [ 110.712016162000054, -6.586424438999927 ], [ 110.71034512500006, -6.587087655999937 ], [ 110.708649039000079, -6.587683906999928 ], [ 110.706930586000055, -6.58821224999997 ], [ 110.705192482000086, -6.588671849999969 ], [ 110.703437478000069, -6.58906197899995 ], [ 110.701668349000045, -6.58938201999996 ], [ 110.699887893000039, -6.589631467999936 ], [ 110.698098926000057, -6.589809926999976 ], [ 110.696304277000081, -6.589917114999935 ], [ 110.694506786000034, -6.589952862999951 ], [ 110.692709295000043, -6.589917114999935 ], [ 110.690914646000067, -6.589809926999976 ], [ 110.689125679000085, -6.589631467999936 ], [ 110.687345223000079, -6.58938201999996 ], [ 110.685576094000055, -6.58906197899995 ], [ 110.683821090000038, -6.588671849999969 ], [ 110.682082986000069, -6.58821224999997 ], [ 110.680364533000045, -6.587683906999928 ], [ 110.678668447000064, -6.587087655999937 ], [ 110.67699741000007, -6.586424438999927 ], [ 110.675354067000058, -6.58569530699998 ], [ 110.673741016000065, -6.584901410999976 ], [ 110.672160807000068, -6.584044008999967 ], [ 110.670615940000062, -6.583124454999961 ], [ 110.669108859000062, -6.582144203999974 ], [ 110.667641945000071, -6.581104806999974 ], [ 110.666217520000089, -6.580007905999935 ], [ 110.664837835000071, -6.57885523799996 ], [ 110.663505073000067, -6.577648624999938 ], [ 110.662221340000087, -6.576389975999973 ], [ 110.660988667000083, -6.575081279999949 ], [ 110.659809002000088, -6.573724606999974 ], [ 110.658684212000082, -6.572322103999966 ], [ 110.657616073000042, -6.570875987999955 ], [ 110.656606276000048, -6.569388545999971 ], [ 110.655656415000067, -6.56786212999998 ], [ 110.654767994000053, -6.566299154999967 ], [ 110.653942416000064, -6.564702091999948 ], [ 110.653180986000052, -6.563073465999935 ], [ 110.652484908000076, -6.561415852999971 ], [ 110.651855282000042, -6.559731874999954 ], [ 110.651293102000068, -6.558024193999927 ], [ 110.650799258000063, -6.556295510999973 ], [ 110.650374529000032, -6.554548558999954 ], [ 110.650019586000042, -6.552786100999981 ], [ 110.64973499000007, -6.551010923999968 ], [ 110.649521190000087, -6.549225834999959 ], [ 110.649378523000053, -6.547433655999953 ], [ 110.649307214000089, -6.545637221999925 ], [ 110.649307376000081, -6.543839371999979 ], [ 110.64937900700005, -6.542042949999939 ], [ 110.649521993000064, -6.540250795999953 ], [ 110.649736107000081, -6.53846574399995 ], [ 110.650021010000046, -6.536690616999977 ], [ 110.650376251000068, -6.534928219999927 ], [ 110.650801267000077, -6.533181340999931 ], [ 110.651295386000072, -6.531452741999942 ], [ 110.651857826000082, -6.529745154999944 ], [ 110.652487696000037, -6.528061280999964 ], [ 110.653184, -6.526403780999942 ], [ 110.653945637000049, -6.524775276999947 ], [ 110.654771402000051, -6.523178342999927 ], [ 110.655659989000071, -6.521615503999953 ], [ 110.656609992000085, -6.52008922999994 ], [ 110.657619909000061, -6.518601935999925 ], [ 110.658688142000074, -6.517155970999966 ], [ 110.659813003000068, -6.515753621999977 ], [ 110.660992712000052, -6.514397106999979 ], [ 110.662225405000072, -6.513088568999933 ], [ 110.663509131000069, -6.511830077999946 ], [ 110.66484186200006, -6.510623621999969 ], [ 110.666221489000066, -6.509471109999936 ], [ 110.667645831000073, -6.508374362999973 ], [ 110.669112638000058, -6.507335114999933 ], [ 110.670619588000079, -6.506355008999947 ], [ 110.672164301000066, -6.505435594999938 ], [ 110.673744333000059, -6.504578324999954 ], [ 110.675357187000088, -6.503784554999925 ], [ 110.677000314000054, -6.503055539999934 ], [ 110.678671115000043, -6.502392431999965 ], [ 110.680366949000074, -6.501796279999951 ], [ 110.682085135000079, -6.501268025999934 ], [ 110.683822957000075, -6.500808503999963 ], [ 110.685577668000064, -6.500418442999944 ], [ 110.687346495000043, -6.500098456999979 ], [ 110.68912664000004, -6.499849052999934 ], [ 110.690915290000078, -6.499670624999965 ], [ 110.692709618000038, -6.499563454999929 ], [ 110.694506786000034, -6.499527712999964 ] ] ] ] } },
{ "type": "Feature", "properties": { "OBJECTID": 10, "Name": "SMAN 1 NALUMSARI", "Rombel": 9, "Dayatampung": 324.0, "BUFF_DIST": 5000.0, "ORIG_FID": 10, "Shape_Length": 0.28410336448648438, "Shape_Area": 0.0064222267373014617 }, "geometry": { "type": "MultiPolygon", "coordinates": [ [ [ [ 110.78864593600008, -6.699118680999959 ], [ 110.790443824000079, -6.699154421999935 ], [ 110.792238870000062, -6.699261590999981 ], [ 110.794028236000088, -6.699440016999972 ], [ 110.795809095000038, -6.699689417999934 ], [ 110.797578630000089, -6.700009399999942 ], [ 110.799334044000034, -6.700399457999936 ], [ 110.801072563000048, -6.700858973999971 ], [ 110.802791437000053, -6.701387222999927 ], [ 110.804487951000056, -6.701983368999947 ], [ 110.806159422000064, -6.702646469999934 ], [ 110.807803208000053, -6.703375476999952 ], [ 110.809416709000061, -6.704169238999953 ], [ 110.810997376000046, -6.705026498999928 ], [ 110.81254270900007, -6.705945904999965 ], [ 110.814050265000049, -6.706926 ], [ 110.815517661000058, -6.707965237999929 ], [ 110.816942577000077, -6.709061973999951 ], [ 110.818322759000068, -6.71021447399994 ], [ 110.819656027000065, -6.711420916999941 ], [ 110.820940270000051, -6.712679395999942 ], [ 110.822173460000045, -6.713987920999955 ], [ 110.823353646000044, -6.715344422999976 ], [ 110.824478961000068, -6.716746757999942 ], [ 110.825547627000049, -6.718192708999936 ], [ 110.826557953000076, -6.719679988999928 ], [ 110.827508341000055, -6.72120624799993 ], [ 110.828397289000065, -6.722769072999938 ], [ 110.829223389000049, -6.724365991999946 ], [ 110.829985337000039, -6.72599448099993 ], [ 110.830681925000079, -6.727651965999939 ], [ 110.831312053000033, -6.729335824999964 ], [ 110.831874724000045, -6.731043395999961 ], [ 110.832369046000053, -6.732771979999939 ], [ 110.832794238000076, -6.734518843999979 ], [ 110.833149627000068, -6.73628122599996 ], [ 110.833434650000072, -6.738056337999978 ], [ 110.833648855000035, -6.739841374999969 ], [ 110.833791903000076, -6.741633513999943 ], [ 110.833863568000083, -6.743429921999962 ], [ 110.833863735000079, -6.745227756999952 ], [ 110.833792402000086, -6.747024176999957 ], [ 110.833649683000033, -6.748816341999941 ], [ 110.833435802000054, -6.750601416999928 ], [ 110.833151096000051, -6.752376580999965 ], [ 110.832796014000053, -6.754139025999962 ], [ 110.832371118000083, -6.755885964999948 ], [ 110.831877079000037, -6.757614634999925 ], [ 110.83131467700008, -6.759322303999966 ], [ 110.830684800000085, -6.761006269999939 ], [ 110.829988445000083, -6.762663870999972 ], [ 110.829226711000047, -6.764292485999931 ], [ 110.828400803000079, -6.765889537999954 ], [ 110.827512026000079, -6.767452502999959 ], [ 110.826561785000081, -6.768978907999951 ], [ 110.82555158200006, -6.770466340999974 ], [ 110.824483015000055, -6.771912446999977 ], [ 110.823357771000076, -6.773314941999956 ], [ 110.822177632000034, -6.77467160599997 ], [ 110.820944462000057, -6.775980292999975 ], [ 110.819660212000088, -6.777238935999947 ], [ 110.818326911000042, -6.77844554099994 ], [ 110.81694667000005, -6.779598202999978 ], [ 110.815521669000077, -6.780695095999931 ], [ 110.814054162000048, -6.781734487999927 ], [ 110.812546471000076, -6.782714732999978 ], [ 110.811000979000084, -6.78363428199998 ], [ 110.809420130000035, -6.784491678999927 ], [ 110.807806425000081, -6.785285569999928 ], [ 110.806162416000063, -6.786014698999963 ], [ 110.804490703000056, -6.78667791099997 ], [ 110.802793929000075, -6.787274158999935 ], [ 110.801074778000043, -6.787802499999941 ], [ 110.799335969000083, -6.788262096999972 ], [ 110.797580253000035, -6.788652223999975 ], [ 110.795810406000044, -6.788972262999948 ], [ 110.794029227000067, -6.789221708999946 ], [ 110.792239534000089, -6.789400167999929 ], [ 110.790444157000081, -6.789507355999945 ], [ 110.78864593600008, -6.789543103999961 ], [ 110.786847715000079, -6.789507355999945 ], [ 110.785052338000071, -6.789400167999929 ], [ 110.783262645000036, -6.789221708999946 ], [ 110.781481466000059, -6.788972262999948 ], [ 110.779711619000068, -6.788652223999975 ], [ 110.777955903000077, -6.788262096999972 ], [ 110.77621709400006, -6.787802499999941 ], [ 110.774497943000085, -6.787274158999935 ], [ 110.772801169000047, -6.78667791099997 ], [ 110.77112945600004, -6.786014698999963 ], [ 110.769485447000079, -6.785285569999928 ], [ 110.767871742000068, -6.784491678999927 ], [ 110.766290893000075, -6.78363428199998 ], [ 110.764745401000084, -6.782714732999978 ], [ 110.763237710000055, -6.781734487999927 ], [ 110.761770203000083, -6.780695095999931 ], [ 110.760345202000053, -6.779598202999978 ], [ 110.758964961000061, -6.77844554099994 ], [ 110.757631660000072, -6.777238935999947 ], [ 110.756347410000046, -6.775980292999975 ], [ 110.755114240000069, -6.77467160599997 ], [ 110.753934101000084, -6.773314941999956 ], [ 110.752808857000048, -6.771912446999977 ], [ 110.751740290000043, -6.770466340999974 ], [ 110.750730087000079, -6.768978907999951 ], [ 110.749779846000081, -6.767452502999959 ], [ 110.748891069000081, -6.765889537999954 ], [ 110.748065161000056, -6.764292485999931 ], [ 110.747303427000077, -6.762663870999972 ], [ 110.746607072000074, -6.761006269999939 ], [ 110.74597719500008, -6.759322303999966 ], [ 110.745414793000066, -6.757614634999925 ], [ 110.744920754000077, -6.755885964999948 ], [ 110.74449585800005, -6.754139025999962 ], [ 110.744140776000052, -6.752376580999965 ], [ 110.743856070000049, -6.750601416999928 ], [ 110.74364218900007, -6.748816341999941 ], [ 110.743499470000074, -6.747024176999957 ], [ 110.74342813700008, -6.745227756999952 ], [ 110.743428304000076, -6.743429921999962 ], [ 110.743499969000084, -6.741633513999943 ], [ 110.743643017000068, -6.739841374999969 ], [ 110.743857222000088, -6.738056337999978 ], [ 110.744142245000035, -6.73628122599996 ], [ 110.744497634000084, -6.734518843999979 ], [ 110.74492282600005, -6.732771979999939 ], [ 110.745417148000058, -6.731043395999961 ], [ 110.74597981900007, -6.729335824999964 ], [ 110.746609947000081, -6.727651965999939 ], [ 110.747306535000064, -6.72599448099993 ], [ 110.748068483000054, -6.724365991999946 ], [ 110.748894583000038, -6.722769072999938 ], [ 110.749783531000048, -6.72120624799993 ], [ 110.750733919000083, -6.719679988999928 ], [ 110.751744245000054, -6.718192708999936 ], [ 110.752812911000035, -6.716746757999942 ], [ 110.753938226000059, -6.715344422999976 ], [ 110.755118412000058, -6.713987920999955 ], [ 110.756351602000052, -6.712679395999942 ], [ 110.757635845000038, -6.711420916999941 ], [ 110.758969113000035, -6.71021447399994 ], [ 110.760349295000083, -6.709061973999951 ], [ 110.761774211000045, -6.707965237999929 ], [ 110.763241607000055, -6.706926 ], [ 110.764749163000033, -6.705945904999965 ], [ 110.766294496000057, -6.705026498999928 ], [ 110.767875163000042, -6.704169238999953 ], [ 110.76948866400005, -6.703375476999952 ], [ 110.771132450000039, -6.702646469999934 ], [ 110.772803921000047, -6.701983368999947 ], [ 110.77450043500005, -6.701387222999927 ], [ 110.776219309000055, -6.700858973999971 ], [ 110.777957828000069, -6.700399457999936 ], [ 110.779713242000071, -6.700009399999942 ], [ 110.781482777000065, -6.699689417999934 ], [ 110.783263636000072, -6.699440016999972 ], [ 110.785053002000041, -6.699261590999981 ], [ 110.786848048000081, -6.699154421999935 ], [ 110.78864593600008, -6.699118680999959 ] ] ] ] } }
]
}
