{"features":[{"properties":{"Sekolah":"Donorojo-Kembang","Id":0,"Jarak":10.3},"type":"Feature","geometry":{"coordinates":[[[110.88775474,-6.47339606],[110.80038118,-6.50555833]]],"type":"MultiLineString"}},{"properties":{"Sekolah":"Kembang-Bangsri","Id":0,"Jarak":4.9},"type":"Feature","geometry":{"coordinates":[[[110.80038118,-6.50555833],[110.75729941,-6.51318089]]],"type":"MultiLineString"}},{"properties":{"Sekolah":"Bangsri-Mlonggo","Id":0,"Jarak":7.8},"type":"Feature","geometry":{"coordinates":[[[110.75729941,-6.51318089],[110.69450679,-6.54474033]]],"type":"MultiLineString"}},{"properties":{"Sekolah":"Mlonggo Jepara","Id":0,"Jarak":6.5},"type":"Feature","geometry":{"coordinates":[[[110.69450679,-6.54474033],[110.66559836,-6.59566639]]],"type":"MultiLineString"}},{"properties":{"Sekolah":"Jepara-Tahunan","Id":0,"Jarak":5.9},"type":"Feature","geometry":{"coordinates":[[[110.66559836,-6.59566639],[110.70576681,-6.63048335]]],"type":"MultiLineString"}},{"properties":{"Sekolah":"Tahunan-Pecangaan","Id":0,"Jarak":6.0},"type":"Feature","geometry":{"coordinates":[[[110.70576681,-6.63048335],[110.70779311,-6.6851486]]],"type":"MultiLineString"}},{"properties":{"Sekolah":"Kecamatan-Mayong","Id":0,"Jarak":6.2},"type":"Feature","geometry":{"coordinates":[[[110.70779311,-6.6851486],[110.7342767,-6.734965]]],"type":"MultiLineString"}},{"properties":{"Sekolah":"Mayong-Welahan","Id":0,"Jarak":2.7},"type":"Feature","geometry":{"coordinates":[[[110.7342767,-6.734965],[110.72445456,-6.75685003]]],"type":"MultiLineString"}},{"properties":{"Sekolah":"Welahan-Nalumsari","Id":0,"Jarak":7.2},"type":"Feature","geometry":{"coordinates":[[[110.72445456,-6.75685003],[110.78864594,-6.74433093]]],"type":"MultiLineString"}}],"type":"FeatureCollection"}
