{"features":[{"properties":{"Rombel":11,"Dayatampun":396.0,"Name":"SMAN 1 JEPARA"},"type":"Feature","geometry":{"coordinates":[110.6655984,-6.5956664],"type":"Point"}},{"properties":{"Rombel":10,"Dayatampun":360.0,"Name":"SMAN 1 BANGSRI"},"type":"Feature","geometry":{"coordinates":[110.7572994,-6.5131809],"type":"Point"}},{"properties":{"Rombel":11,"Dayatampun":395.0,"Name":"SMAN 1 PECANGAAN"},"type":"Feature","geometry":{"coordinates":[110.7077931,-6.6851486],"type":"Point"}},{"properties":{"Rombel":11,"Dayatampun":395.0,"Name":"SMAN 1 TAHUNAN"},"type":"Feature","geometry":{"coordinates":[110.7057668,-6.6304834],"type":"Point"}},{"properties":{"Rombel":9,"Dayatampun":324.0,"Name":"SMAN 1 WELAHAN"},"type":"Feature","geometry":{"coordinates":[110.7244546,-6.7568500],"type":"Point"}},{"properties":{"Rombel":10,"Dayatampun":360.0,"Name":"SMAN 1 DONOROJO"},"type":"Feature","geometry":{"coordinates":[110.8877547,-6.4733961],"type":"Point"}},{"properties":{"Rombel":10,"Dayatampun":360.0,"Name":"SMAN 1 MAYONG"},"type":"Feature","geometry":{"coordinates":[110.7342767,-6.734965],"type":"Point"}},{"properties":{"Rombel":10,"Dayatampun":360.0,"Name":"SMAN 1 KEMBANG"},"type":"Feature","geometry":{"coordinates":[110.8003812,-6.5055583],"type":"Point"}},{"properties":{"Rombel":8,"Dayatampun":288.0,"Name":"SMAN 1 MLONGGO"},"type":"Feature","geometry":{"coordinates":[110.6945068,-6.5447403],"type":"Point"}},{"properties":{"Rombel":9,"Dayatampun":324.0,"Name":"SMAN 1 NALUMSARI"},"type":"Feature","geometry":{"coordinates":[110.7886459,-6.7443309],"type":"Point"}}],"type":"FeatureCollection"}
